NORAD_CAT_ID,OBJECT_NAME,OBJECT_TYPE,EPOCH,MEAN_MOTION,ECCENTRICITY,INCLINATION,RA_OF_ASC_NODE,ARG_OF_PERICENTER,MEAN_ANOMALY,BSTAR,MEAN_MOTION_DOT,MEAN_MOTION_DDOT,TLE_LINE0,TLE_LINE1,TLE_LINE2,SEMIMAJOR_AXIS,PERIOD,APOGEE,PERIGEE,DECAYED
54801.0,STARLINK-5429,PAYLOAD,2024-06-24 16:35:31,15.08840393,0.0001287,53.2184,320.4272,106.2093,253.9041,6.6611e-05,7.72e-06,0.0,0 STARLINK-5429,1 54801U 22175AV  24176.69134094  .00000772  00000-0  66611-4 0  9991,2 54801  53.2184 320.4272 0001287 106.2093 253.9041 15.08840393 85875,6917.879,95.438,540.635,538.854,0.0
54801.0,STARLINK-5429,PAYLOAD,2024-06-25 13:15:32,15.08839079,0.0001267,53.218,316.5618,101.447,258.6665,7.3084e-05,8.75e-06,0.0,0 STARLINK-5429,1 54801U 22175AV  24177.55246273  .00000875  00000-0  73084-4 0  9996,2 54801  53.2180 316.5618 0001267 101.4470 258.6665 15.08839079 83843,6917.883,95.438,540.625,538.872,0.0
54801.0,STARLINK-5429,PAYLOAD,2024-06-25 14:50:55,15.08839469,0.0001266,53.218,316.2645,101.0997,259.0138,7.4541e-05,8.99e-06,0.0,0 STARLINK-5429,1 54801U 22175AV  24177.61870246  .00000899  00000-0  74541-4 0  9991,2 54801  53.2180 316.2645 0001266 101.0997 259.0138 15.08839469 86014,6917.882,95.438,540.623,538.871,0.0
54801.0,STARLINK-5429,PAYLOAD,2024-06-25 18:01:42,15.08840794,0.0001265,53.218,315.6695,101.6685,258.4449,8.0487e-05,9.93e-06,0.0,0 STARLINK-5429,1 54801U 22175AV  24177.75118139  .00000993  00000-0  80487-4 0  9993,2 54801  53.2180 315.6695 0001265 101.6685 258.4449 15.08840794 86034,6917.878,95.438,540.618,538.868,0.0
54801.0,STARLINK-5429,PAYLOAD,2024-06-26 01:58:37,15.08847619,0.0001203,53.2178,314.184,91.4498,268.6632,0.0001239,1.685e-05,0.0,0 STARLINK-5429,1 54801U 22175AV  24178.08237666  .00001685  00000-0  12390-3 0  9993,2 54801  53.2178 314.1840 0001203  91.4498 268.6632 15.08847619 83922,6917.857,95.437,540.554,538.89,0.0
54801.0,STARLINK-5429,PAYLOAD,2024-06-27 12:57:07,15.08837472,0.0001333,53.2184,307.6386,106.1805,253.9334,3.5423e-05,2.76e-06,0.0,0 STARLINK-5429,1 54801U 22175AV  24179.53966743  .00000276  00000-0  35423-4 0  9997,2 54801  53.2184 307.6386 0001333 106.1805 253.9334 15.08837472 84148,6917.888,95.438,540.675,538.831,0.0
54801.0,STARLINK-5429,PAYLOAD,2024-06-27 16:07:53,15.08838262,0.0001261,53.2181,307.0488,86.6228,273.4908,-4.2543e-06,-3.56e-06,0.0,0 STARLINK-5429,1 54801U 22175AV  24179.67214864 -.00000356  00000-0 -42543-5 0  9995,2 54801  53.2181 307.0488 0001261  86.6228 273.4908 15.08838262 86327,6917.886,95.438,540.623,538.878,0.0
54801.0,STARLINK-5429,PAYLOAD,2024-06-28 14:23:18,15.08794289,0.0001056,53.2159,302.8808,111.8877,248.2228,0.00075453,0.00011726,0.0,0 STARLINK-5429,1 54801U 22175AV  24180.59952319  .00011726  00000-0  75453-3 0  9997,2 54801  53.2159 302.8808 0001056 111.8877 248.2228 15.08794289 86464,6918.02,95.44,540.616,539.155,0.0
54801.0,STARLINK-5429,PAYLOAD,2024-06-28 15:58:39,15.088577,0.0001231,53.2177,302.5846,101.5911,258.522,0.000222,3.249e-05,0.0,0 STARLINK-5429,1 54801U 22175AV  24180.66573099  .00003249  00000-0  22200-3 0  9992,2 54801  53.2177 302.5846 0001231 101.5911 258.5220 15.08857700 84319,6917.826,95.436,540.543,538.84,0.0
54801.0,STARLINK-5429,PAYLOAD,2024-06-29 01:30:56,15.08867466,0.0001316,53.2174,300.7995,84.6114,275.5028,0.00027922,4.162e-05,0.0,0 STARLINK-5429,1 54801U 22175AV  24181.06315847  .00004162  00000-0  27922-3 0  9993,2 54801  53.2174 300.7995 0001316  84.6114 275.5028 15.08867466 84372,6917.796,95.436,540.572,538.751,0.0
54801.0,STARLINK-5429,PAYLOAD,2024-06-29 12:38:42,15.0882196,0.00016,53.2171,298.7207,85.5526,274.5649,-0.00010644,-1.981e-05,0.0,0 STARLINK-5429,1 54801U 22175AV  24181.52688098 -.00001981  00000-0 -10644-3 0  9996,2 54801  53.2171 298.7207 0001600  85.5526 274.5649 15.08821960 84449,6917.936,95.439,540.907,538.694,0.0
54801.0,STARLINK-5429,PAYLOAD,2024-06-29 14:14:05,15.08822568,0.0001404,53.2165,298.4223,91.4438,268.6715,-0.00010062,-1.888e-05,0.0,0 STARLINK-5429,1 54801U 22175AV  24181.59312011 -.00001888  00000-0 -10062-3 0  9992,2 54801  53.2165 298.4223 0001404  91.4438 268.6715 15.08822568 86611,6917.934,95.439,540.77,538.827,0.0
54801.0,STARLINK-5429,PAYLOAD,2024-06-30 01:21:46,15.0883471,0.0001359,53.2192,296.3402,88.0351,272.0797,2.2873e-06,-2.52e-06,0.0,0 STARLINK-5429,1 54801U 22175AV  24182.05679291 -.00000252  00000-0  22873-5 0  9998,2 54801  53.2192 296.3402 0001359  88.0351 272.0797 15.08834710 84521,6917.897,95.438,540.702,538.821,0.0
54801.0,STARLINK-5429,PAYLOAD,2024-06-30 14:04:51,15.08839414,0.000136,53.2193,293.9632,87.0539,273.0609,7.2386e-05,8.64e-06,0.0,0 STARLINK-5429,1 54801U 22175AV  24182.58671030  .00000864  00000-0  72386-4 0  9990,2 54801  53.2193 293.9632 0001360  87.0539 273.0609 15.08839414 86766,6917.882,95.438,540.688,538.806,0.0
54801.0,STARLINK-5429,PAYLOAD,2024-06-30 17:15:37,15.08848779,0.0001344,53.2172,293.3663,82.0702,278.0442,2.4052e-05,9.5e-07,0.0,0 STARLINK-5429,1 54801U 22175AV  24182.71918690  .00000095  00000-0  24052-4 0  9994,2 54801  53.2172 293.3663 0001344  82.0702 278.0442 15.08848779 84627,6917.854,95.437,540.648,538.789,0.0
54801.0,STARLINK-5429,PAYLOAD,2024-07-01 12:20:16,15.08820638,0.0001256,53.2173,289.7967,81.1361,278.9774,0.00027623,4.109e-05,0.0,0 STARLINK-5429,1 54801U 22175AV  24183.51407720  .00004109  00000-0  27623-3 0  9996,2 54801  53.2173 289.7967 0001256  81.1361 278.9774 15.08820638 84741,6917.94,95.439,540.673,538.936,0.0
54801.0,STARLINK-5429,PAYLOAD,2024-07-01 13:55:39,15.08824442,0.0001243,53.2163,289.5028,75.5829,284.5301,0.00022712,3.327e-05,0.0,0 STARLINK-5429,1 54801U 22175AV  24183.58031637  .00003327  00000-0  22712-3 0  9998,2 54801  53.2163 289.5028 0001243  75.5829 284.5301 15.08824442 86915,6917.928,95.439,540.653,538.933,0.0
54801.0,STARLINK-5429,PAYLOAD,2024-07-02 13:46:26,15.088335,0.0001293,53.2161,285.0404,78.5353,281.5785,6.0297e-05,6.72e-06,0.0,0 STARLINK-5429,1 54801U 22175AV  24184.57391959  .00000672  00000-0  60297-4 0  9995,2 54801  53.2161 285.0404 0001293  78.5353 281.5785 15.08833500 84907,6917.9,95.438,540.66,538.871,0.0
54801.0,STARLINK-5429,PAYLOAD,2024-07-03 13:37:13,15.08838644,0.0001047,53.2156,280.5813,79.4574,280.6536,0.00013054,1.79e-05,0.0,0 STARLINK-5429,1 54801U 22175AV  24185.56751522  .00001790  00000-0  13054-3 0  9991,2 54801  53.2156 280.5813 0001047  79.4574 280.6536 15.08838644 85052,6917.885,95.438,540.474,539.025,0.0
54801.0,STARLINK-5429,PAYLOAD,2024-07-04 11:52:38,15.08827856,0.0001264,53.2165,276.4201,91.9088,268.2049,5.9056e-05,6.52e-06,0.0,0 STARLINK-5429,1 54801U 22175AV  24186.49488644  .00000652  00000-0  59056-4 0  9995,2 54801  53.2165 276.4201 0001264  91.9088 268.2049 15.08827856 85196,6917.918,95.438,540.657,538.908,0.0
54801.0,STARLINK-5429,PAYLOAD,2024-07-04 13:28:01,15.08829512,0.0001273,53.2168,276.1236,102.5948,257.5187,0.00012549,1.709e-05,0.0,0 STARLINK-5429,1 54801U 22175AV  24186.56112394  .00001709  00000-0  12549-3 0  9998,2 54801  53.2168 276.1236 0001273 102.5948 257.5187 15.08829512 87364,6917.912,95.438,540.658,538.897,0.0
54801.0,STARLINK-5429,PAYLOAD,2024-07-04 16:38:47,15.08834994,0.0001307,53.2169,275.5279,94.9522,265.1619,0.00014006,1.942e-05,0.0,0 STARLINK-5429,1 54801U 22175AV  24186.69360141  .00001942  00000-0  14006-3 0  9996,2 54801  53.2169 275.5279 0001307  94.9522 265.1619 15.08834994 85223,6917.896,95.438,540.665,538.857,0.0
54801.0,STARLINK-5429,PAYLOAD,2024-07-04 23:00:18,15.08848391,0.0001294,53.2174,274.3389,85.2534,274.8606,0.00018201,2.611e-05,0.0,0 STARLINK-5429,1 54801U 22175AV  24186.95855277  .00002611  00000-0  18201-3 0  9999,2 54801  53.2174 274.3389 0001294  85.2534 274.8606 15.08848391 85262,6917.855,95.437,540.615,538.825,0.0
54801.0,STARLINK-5429,PAYLOAD,2024-07-05 11:43:24,15.08842127,0.000139,53.2172,271.9609,89.0191,271.0961,6.0969e-05,6.83e-06,0.0,0 STARLINK-5429,1 54801U 22175AV  24187.48847881  .00000683  00000-0  60969-4 0  9996,2 54801  53.2172 271.9609 0001390  89.0191 271.0961 15.08842127 85349,6917.874,95.437,540.7,538.777,0.0
54801.0,STARLINK-5429,PAYLOAD,2024-07-05 22:51:05,15.08855189,0.0001308,53.2168,269.8767,84.6855,275.4287,0.00012679,1.731e-05,0.0,0 STARLINK-5429,1 54801U 22175AV  24187.95214634  .00001731  00000-0  12679-3 0  9991,2 54801  53.2168 269.8767 0001308  84.6855 275.4287 15.08855189 85411,6917.834,95.437,540.604,538.794,0.0
54801.0,STARLINK-5429,PAYLOAD,2024-07-06 11:34:12,15.08828615,0.0001263,53.2175,267.4997,85.6459,274.4677,8.1921e-05,1.016e-05,0.0,0 STARLINK-5429,1 54801U 22175AV  24188.48208614  .00001016  00000-0  81921-4 0  9994,2 54801  53.2175 267.4997 0001263  85.6459 274.4677 15.08828615 85493,6917.915,95.438,540.654,538.906,0.0
54801.0,STARLINK-5429,PAYLOAD,2024-07-06 14:44:57,15.0883881,0.0001428,53.2165,266.9037,87.6601,272.4555,2.579e-05,1.23e-06,0.0,0 STARLINK-5429,1 54801U 22175AV  24188.61455695  .00000123  00000-0  25790-4 0  9992,2 54801  53.2165 266.9037 0001428  87.6601 272.4555 15.08838810 85519,6917.884,95.438,540.737,538.761,0.0
54801.0,STARLINK-5429,PAYLOAD,2024-07-07 11:24:58,15.08842983,0.0001651,53.2181,263.0363,107.5845,252.5328,-1.8213e-07,-2.91e-06,0.0,0 STARLINK-5429,1 54801U 22175AV  24189.47567628 -.00000291  00000-0 -18213-6 0  9999,2 54801  53.2181 263.0363 0001651 107.5845 252.5328 15.08842983 87804,6917.871,95.437,540.878,538.594,0.0
54801.0,STARLINK-5429,PAYLOAD,2024-07-08 11:15:45,15.08841348,0.0001608,53.217,258.5772,98.2757,261.8417,0.00014373,2e-05,0.0,0 STARLINK-5429,1 54801U 22175AV  24190.46927835  .00002000  00000-0  14373-3 0  9998,2 54801  53.2170 258.5772 0001608  98.2757 261.8417 15.08841348 85797,6917.876,95.437,540.854,538.629,0.0
54801.0,STARLINK-5429,PAYLOAD,2024-07-09 11:06:32,15.08840281,0.0001343,53.2145,254.1179,92.1142,268.0004,0.0001133,1.516e-05,0.0,0 STARLINK-5429,1 54801U 22175AV  24191.46287820  .00001516  00000-0  11330-3 0  9993,2 54801  53.2145 254.1179 0001343  92.1142 268.0004 15.08840281 88103,6917.88,95.438,540.674,538.815,0.0
